{
    "links": {
        "self": "http://www.neowsapp.com/rest/v1/neo/54049831?api_key=iIulBulltgU6a56xZRHN4H3l9WmuAYTsLGpBGhQ2"
    },
    "id": "54049831",
    "neo_reference_id": "54049831",
    "name": "(2020 ON5)",
    "designation": "2020 ON5",
    "nasa_jpl_url": "http://ssd.jpl.nasa.gov/sbdb.cgi?sstr=54049831",
    "absolute_magnitude_h": 24.521,
    "estimated_diameter": {
        "kilometers": {
            "estimated_diameter_min": 0.0331401887,
            "estimated_diameter_max": 0.0741037147
        },
        "meters": {
            "estimated_diameter_min": 33.140188673,
            "estimated_diameter_max": 74.1037146601
        },
        "miles": {
            "estimated_diameter_min": 0.0205923522,
            "estimated_diameter_max": 0.0460458993
        },
        "feet": {
            "estimated_diameter_min": 108.727656606,
            "estimated_diameter_max": 243.1224312054
        }
    },
    "is_potentially_hazardous_asteroid": false,
    "close_approach_data": [
        {
            "close_approach_date": "2020-07-22",
            "close_approach_date_full": "2020-Jul-22 03:47",
            "epoch_date_close_approach": 1595389620000,
            "relative_velocity": {
                "kilometers_per_second": "9.0755430938",
                "kilometers_per_hour": "32671.9551377237",
                "miles_per_hour": "20301.0823465484"
            },
            "miss_distance": {
                "astronomical": "0.0660394784",
                "lunar": "25.6893570976",
                "kilometers": "9879365.304551008",
                "miles": "6138752.9424915904"
            },
            "orbiting_body": "Earth"
        }
    ],
    "orbital_data": {
        "orbit_id": "1",
        "orbit_determination_date": "2020-07-29 07:12:04",
        "first_observation_date": "2020-07-27",
        "last_observation_date": "2020-07-29",
        "data_arc_in_days": 2,
        "observations_used": 19,
        "orbit_uncertainty": "9",
        "minimum_orbit_intersection": ".0314798",
        "jupiter_tisserand_invariant": "3.431",
        "epoch_osculation": "2459058.5",
        "eccentricity": ".5306594939175429",
        "semi_major_axis": "2.227580306326951",
        "inclination": "9.123984216901507",
        "ascending_node_longitude": "130.6220016970521",
        "orbital_period": "1214.36287429909",
        "perihelion_distance": "1.045493668310806",
        "perihelion_argument": "183.7955776020727",
        "aphelion_distance": "3.409666944343096",
        "perihelion_time": "2459063.512570036942",
        "mean_anomaly": "358.5140148373355",
        "mean_motion": ".2964517506414925",
        "equinox": "J2000",
        "orbit_class": {
            "orbit_class_type": "AMO",
            "orbit_class_description": "Near-Earth asteroid orbits similar to that of 1221 Amor",
            "orbit_class_range": "1.017 AU < q (perihelion) < 1.3 AU"
        }
    },
    "is_sentry_object": false
}